KUIPER-00061            
1 64521U 25134X   25235.82237807  .00026529  00000+0  74407-3 0  9995
2 64521  51.8753  35.0220 0006141 328.2716  31.7900 15.36379928 10668
KUIPER-00062            
1 64522U 25134Y   25235.91670139 -.01001538  00000+0 -56881-1 0  9995
2 64522  51.8821  37.0612 0007627 343.1446  79.5145 15.15395933  5709
KUIPER-00063            
1 64523U 25134Z   25235.91670139 -.01203313  00000+0 -64258-1 0  9998
2 64523  51.8777  36.1503 0006379 279.6180 187.9865 15.17615284  5620
KUIPER-00064            
1 64524U 25134AA  25235.91670139 -.00249386  00000+0 -10814-1 0  9997
2 64524  51.8864  35.4169 0002832  53.4587  89.7458 15.22971731  5150
KUIPER-00065            
1 64525U 25134AB  25235.91670139 -.01568524  00000+0 -10361+0 0  9992
2 64525  51.8875  37.7763 0008686 348.6635 328.5582 15.10425153  5852
KUIPER-00066            
1 64526U 25134AC  25235.91670139 -.01389276  00000+0 -68550-1 0  9993
2 64526  51.8856  35.4758 0004934 329.0714 106.6254 15.20797273  4232
KUIPER-00069            
1 64816U 25151A   25235.91720139  .00013066  00000+0  37309-3 0  9998
2 64816  51.8777 101.1649 0005241 276.2473  83.7916 15.36340859  7114
KUIPER-00070            
1 64817U 25151B   25235.91670139 -.01602840  00000+0 -90696-1 0  9996
2 64817  51.8904 103.6257 0006432 310.4968 313.2168 15.16005606  5891
